[{"OBJECT_NAME":"STARLINK-30506","OBJECT_ID":"2023-158X","EPOCH":"2026-03-09T22:07:09.098112","MEAN_MOTION":15.27579932,"ECCENTRICITY":5.024e-5,"INCLINATION":42.9941,"RA_OF_ASC_NODE":25.8767,"ARG_OF_PERICENTER":174.9966,"MEAN_ANOMALY":185.0891,"EPHEMERIS_TYPE":0,"CLASSIFICATION_TYPE":"U","NORAD_CAT_ID":58072,"ELEMENT_SET_NO":999,"REV_AT_EPOCH":13360,"BSTAR":0.0005704728,"MEAN_MOTION_DOT":0.00015469,"MEAN_MOTION_DDOT":0},{"OBJECT_NAME":"PEGASUS R\/B","OBJECT_ID":"2006-008D","EPOCH":"2026-03-09T19:52:27.636960","MEAN_MOTION":12.3450933,"ECCENTRICITY":0.15655654,"INCLINATION":105.501,"RA_OF_ASC_NODE":149.9277,"ARG_OF_PERICENTER":6.1273,"MEAN_ANOMALY":355.6706,"EPHEMERIS_TYPE":0,"CLASSIFICATION_TYPE":"U","NORAD_CAT_ID":28983,"ELEMENT_SET_NO":999,"REV_AT_EPOCH":81445,"BSTAR":0.00096837459,"MEAN_MOTION_DOT":0.00029646,"MEAN_MOTION_DDOT":3.226784e-6}]
